OBJECT_NAME,OBJECT_ID,EPOCH,MEAN_MOTION,ECCENTRICITY,INCLINATION,RA_OF_ASC_NODE,ARG_OF_PERICENTER,MEAN_ANOMALY,EPHEMERIS_TYPE,CLASSIFICATION_TYPE,NORAD_CAT_ID,ELEMENT_SET_NO,REV_AT_EPOCH,BSTAR,MEAN_MOTION_DOT,MEAN_MOTION_DDOT
SAUDISAT 2,2004-025F,2026-06-18T11:18:51.729984,14.56684550,.0023549,98.5507,169.4865,294.1244,65.7491,0,U,28371,999,16593,.5178E-4,.182E-5,0
COSMOS 2407,2004-028A,2026-06-18T11:16:49.612224,13.76334826,.0037856,82.9608,73.8841,248.2126,285.6980,0,U,28380,999,10005,.50479E-4,.64E-6,0
COSMOS 2414,2005-002A,2026-06-18T16:33:55.361376,13.87926638,.0039388,82.9497,42.5096,326.9208,32.9492,0,U,28521,999,8402,.24843E-4,.45E-6,0
INMARSAT 4-F1,2005-009A,2026-06-18T10:20:50.103744,1.00271147,.0002595,5.1707,42.7662,44.5014,152.7205,0,U,28628,999,7768,0,.24E-6,0
SJ-7,2005-024A,2026-06-18T14:28:36.783264,15.21561340,.0016201,97.7278,199.7449,33.3423,326.8829,0,U,28737,999,14824,.27961E-3,.625E-4,0
CUBESAT XI-V,2005-043F,2026-06-17T22:42:29.709216,14.72633352,.00137043,98.2987,324.5839,198.2082,161.8635,0,U,28895,999,10186,.18286399E-3,.1113E-4,0
HINODE (SOLAR-B),2006-041A,2026-06-18T14:47:14.457120,14.68624755,.0015977,98.0545,185.7475,284.7920,75.1515,0,U,29479,999,5508,.97675E-4,.519E-5,0
SHIJIAN-6 02B (SJ-6 02B),2006-046B,2026-06-18T16:18:09.287424,15.01380678,.0015412,97.7152,198.7291,56.1607,304.1082,0,U,29506,999,7096,.92377E-4,.1132E-4,0
DMSP 5D-3 F17 (USA 191),2006-050A,2026-06-18T15:42:40.336992,14.14993111,.0011124,98.7378,176.1948,55.5767,304.6456,0,U,29522,999,1263,.14922E-4,-.14E-6,0
LAPAN-TUBSAT,2007-001A,2026-06-18T17:39:32.103936,14.85949054,.0011994,98.1337,168.9947,174.3883,185.7468,0,U,29709,999,5138,-.99133E-6,-.66E-6,0
HAIYANG-1B,2007-010A,2026-06-18T16:23:35.634048,14.31027215,.0013111,98.3495,151.4702,191.7892,168.2986,0,U,31113,999,85,.41876E-4,.69E-6,0
COSMO-SKYMED 2,2007-059A,2026-06-18T18:45:04.207680,14.82156126,.0001355,97.8886,353.3561,87.7396,272.3973,0,U,32376,999,224,.42964E-4,.29E-5,0
CARTOSAT-2A,2008-021A,2026-06-18T17:42:09.898848,14.79239753,.0013189,97.7627,218.3934,104.0869,256.1810,0,U,32783,999,97903,.32606E-4,.192E-5,0
CUTE-1.7+APD II (CO-65),2008-021C,2026-06-18T16:58:19.166592,15.09462529,.0009595,97.8275,151.1573,34.0332,326.1510,0,U,32785,999,98542,.27673E-3,.4368E-4,0
SEEDS II (CO-66),2008-021J,2026-06-18T10:35:22.532928,15.32786684,.000089,97.7517,167.3987,357.5135,2.6101,0,U,32791,999,98748,.44622E-3,.14056E-3,0
YUBILEINY (RS30),2008-025A,2026-06-18T18:55:26.520960,12.43179339,.0018799,82.5037,354.4435,310.2288,49.7147,0,U,32953,999,81989,-.18711E-3,-.16E-6,0
FENGYUN 3A,2008-026A,2026-06-18T14:21:04.493952,14.19571403,.0009645,98.6883,110.4048,119.9737,240.2398,0,U,32958,999,93560,.49021E-4,.6E-6,0
HUANJING 1A (HJ-1A),2008-041A,2026-06-18T17:12:42.561792,14.83988993,.0020116,97.6682,155.4965,130.0719,230.2264,0,U,33320,999,95863,.13667E-3,.109E-4,0
HUANJING 1B (HJ-1B),2008-041B,2026-06-18T18:06:18.726624,14.83318642,.003616,97.6518,158.6993,175.7206,184.4324,0,U,33321,999,95864,.49471E-4,.357E-5,0
SHIJIAN-6 03A (SJ-6 03A),2008-053A,2026-06-18T16:44:37.416192,15.17179068,.0011499,97.8401,203.0713,15.1093,345.0480,0,U,33408,999,96319,.25622E-3,.5024E-4,0
SHIJIAN-6 03B (SJ-6 03B),2008-053B,2026-06-18T18:18:21.639744,15.04308083,.0020648,97.8567,189.6810,39.9408,320.3332,0,U,33409,999,96298,.24551E-4,.278E-5,0
CHUANGXIN 1-02 (CX-1-02),2008-056B,2026-06-18T16:43:21.493056,14.30153454,.0015091,98.6127,195.9489,132.4149,227.8313,0,U,33434,999,91883,.36193E-4,.5E-6,0
